{
    "links": {
        "self": "http://www.neowsapp.com/rest/v1/neo/3515693?api_key=iIulBulltgU6a56xZRHN4H3l9WmuAYTsLGpBGhQ2"
    },
    "id": "3515693",
    "neo_reference_id": "3515693",
    "name": "(2010 GE35)",
    "designation": "2010 GE35",
    "nasa_jpl_url": "http://ssd.jpl.nasa.gov/sbdb.cgi?sstr=3515693",
    "absolute_magnitude_h": 23.0,
    "estimated_diameter": {
        "kilometers": {
            "estimated_diameter_min": 0.0667659413,
            "estimated_diameter_max": 0.1492931834
        },
        "meters": {
            "estimated_diameter_min": 66.7659413495,
            "estimated_diameter_max": 149.2931834393
        },
        "miles": {
            "estimated_diameter_min": 0.0414864197,
            "estimated_diameter_max": 0.0927664547
        },
        "feet": {
            "estimated_diameter_min": 219.0483710172,
            "estimated_diameter_max": 489.807047955
        }
    },
    "is_potentially_hazardous_asteroid": false,
    "close_approach_data": [
        {
            "close_approach_date": "2010-04-28",
            "close_approach_date_full": "2010-Apr-28 06:34",
            "epoch_date_close_approach": 1272436440000,
            "relative_velocity": {
                "kilometers_per_second": "13.5105094251",
                "kilometers_per_hour": "48637.833930504",
                "miles_per_hour": "30221.6585330957"
            },
            "miss_distance": {
                "astronomical": "0.0257076888",
                "lunar": "10.0002909432",
                "kilometers": "3845815.487102856",
                "miles": "2389678.9328011728"
            },
            "orbiting_body": "Earth"
        }
    ],
    "orbital_data": {
        "orbit_id": "20",
        "orbit_determination_date": "2017-04-06 08:57:48",
        "first_observation_date": "2010-04-12",
        "last_observation_date": "2010-04-27",
        "data_arc_in_days": 15,
        "observations_used": 110,
        "orbit_uncertainty": "7",
        "minimum_orbit_intersection": ".000258544",
        "jupiter_tisserand_invariant": "3.363",
        "epoch_osculation": "2459000.5",
        "eccentricity": ".6175574821192299",
        "semi_major_axis": "2.224707345086353",
        "inclination": "5.404788418007339",
        "ascending_node_longitude": "34.29564476824996",
        "orbital_period": "1212.014344607828",
        "perihelion_distance": ".8508226786026682",
        "perihelion_argument": "233.2373124759049",
        "aphelion_distance": "3.598592011570039",
        "perihelion_time": "2458987.933864843297",
        "mean_anomaly": "3.732471217473065",
        "mean_motion": ".297026187521308",
        "equinox": "J2000",
        "orbit_class": {
            "orbit_class_type": "APO",
            "orbit_class_description": "Near-Earth asteroid orbits which cross the Earth’s orbit similar to that of 1862 Apollo",
            "orbit_class_range": "a (semi-major axis) > 1.0 AU; q (perihelion) < 1.017 AU"
        }
    },
    "is_sentry_object": false
}